[{"OBJECT_NAME":"FLOCK 4G-15","OBJECT_ID":"2025-009BX","EPOCH":"2026-03-09T17:13:37.807680","MEAN_MOTION":15.27266411,"ECCENTRICITY":0.00036988,"INCLINATION":97.4054,"RA_OF_ASC_NODE":151.1927,"ARG_OF_PERICENTER":316.8208,"MEAN_ANOMALY":43.274,"EPHEMERIS_TYPE":0,"CLASSIFICATION_TYPE":"U","NORAD_CAT_ID":62678,"ELEMENT_SET_NO":999,"REV_AT_EPOCH":12135,"BSTAR":0.00047574812,"MEAN_MOTION_DOT":0.00012647,"MEAN_MOTION_DDOT":0},{"OBJECT_NAME":"STARLINK-34766","OBJECT_ID":"2025-263W","EPOCH":"2026-03-09T04:02:26.075904","MEAN_MOTION":15.27571596,"ECCENTRICITY":0.00013711,"INCLINATION":43.0014,"RA_OF_ASC_NODE":353.2552,"ARG_OF_PERICENTER":268.5653,"MEAN_ANOMALY":91.5042,"EPHEMERIS_TYPE":0,"CLASSIFICATION_TYPE":"U","NORAD_CAT_ID":66505,"ELEMENT_SET_NO":999,"REV_AT_EPOCH":1882,"BSTAR":0.0012252695,"MEAN_MOTION_DOT":0.000336,"MEAN_MOTION_DDOT":0}]
